*******************************************************************************
Ephemeris / WWW_USER Fri Mar  7 10:36:08 2025 Pasadena, USA      / Horizons    
*******************************************************************************
Target body name: (2017 SN16)                     {source: JPL#20}
Center body name: Earth (399)                     {source: DE441}
Center-site name: Mauna Kea
*******************************************************************************
Start time      : A.D. 2018-Sep-03 04:45:00.0000 UT      
Stop  time      : A.D. 2018-Sep-03 15:57:00.0000 UT      
Step-size       : 1 minutes
*******************************************************************************
Target pole/equ : undefined
Target radii    : undefined                                                    
Center geodetic : 204.5278, 19.8260847, 4.21024   {E-lon(deg),Lat(deg),Alt(km)}
Center cylindric: 204.5278, 6006.35451, 2151.0229 {E-lon(deg),Dxy(km),Dz(km)}
Center pole/equ : ITRF93                          {East-longitude positive}
Center radii    : 6378.137, 6378.137, 6356.752 km {Equator_a, b, pole_c}       
Target primary  : Sun
Vis. interferer : MOON (R_eq= 1737.400) km        {source: DE441}
Rel. light bend : Sun                             {source: DE441}
Rel. lght bnd GM: 1.3271E+11 km^3/s^2                                          
Small-body perts: Yes                             {source: SB441-N16}
Atmos refraction: NO (AIRLESS)
RA format       : HMS
Time format     : CAL 
Calendar mode   : Mixed Julian/Gregorian
RTS-only print  : NO       
EOP file        : eop.250306.p250602                                           
EOP coverage    : DATA-BASED 1962-JAN-20 TO 2025-MAR-06. PREDICTS-> 2025-JUN-01
Units conversion: 1 au= 149597870.700 km, c= 299792.458 km/s, 1 day= 86400.0 s 
Table cut-offs 1: Elevation (-90.0deg=NO ),Airmass (>38.000=NO), Daylight (YES)
Table cut-offs 2: Solar elongation (  0.0,180.0=NO ),Local Hour Angle( 0.0=NO )
Table cut-offs 3: RA/DEC angular rate (     0.0=NO )                           
*******************************************************************************
Initial IAU76/J2000 heliocentric ecliptic osculating elements (au, days, deg.):
  EPOCH=  2458305.5 ! 2018-Jul-06.00 (TDB)         Residual RMS= .23751        
   EC= .1454884975659386   QR= .8682464985612274   TP= 2458145.5722438502      
   OM= 2.759719470837934   W=  137.1017088998531   IN= 13.38264682844635       
  Equivalent ICRF heliocentric cartesian coordinates (au, au/d):
   X= 5.756755401261899E-01  Y=-7.953424559592890E-01  Z=-6.031561894536019E-01
  VX= 1.332076113263395E-02 VY= 5.454663564585547E-03 VZ= 3.896229736425836E-03
Asteroid physical parameters (km, seconds, rotational period in hours):        
   GM= n.a.                RAD= n.a.               ROTPER= n.a.                
   H= 23.34                G= .150                 B-V= n.a.                   
                           ALBEDO= n.a.            STYP= n.a.                  
*******************************************************************************
 Date__(UT)__HR:MN     R.A._________(ICRF)_________DEC
******************************************************
$$SOE
 2018-Sep-03 08:51     01 18 39.460524 -24 44 31.51579
 2018-Sep-03 08:52     01 18 39.319674 -24 44 30.92560
 2018-Sep-03 08:53     01 18 39.178761 -24 44 30.33517
 2018-Sep-03 08:54     01 18 39.037783 -24 44 29.74452
 2018-Sep-03 08:55     01 18 38.896741 -24 44 29.15363
 2018-Sep-03 08:56     01 18 38.755634 -24 44 28.56252
 2018-Sep-03 08:57     01 18 38.614464 -24 44 27.97117
 2018-Sep-03 08:58     01 18 38.473230 -24 44 27.37958
 2018-Sep-03 08:59     01 18 38.331932 -24 44 26.78776
 2018-Sep-03 09:00     01 18 38.190570 -24 44 26.19570
 2018-Sep-03 09:01     01 18 38.049146 -24 44 25.60340
 2018-Sep-03 09:02     01 18 37.907658 -24 44 25.01086
 2018-Sep-03 09:03     01 18 37.766107 -24 44 24.41808
 2018-Sep-03 09:04     01 18 37.624493 -24 44 23.82505
 2018-Sep-03 09:05     01 18 37.482816 -24 44 23.23178
 2018-Sep-03 09:06     01 18 37.341077 -24 44 22.63826
 2018-Sep-03 09:07     01 18 37.199275 -24 44 22.04449
 2018-Sep-03 09:08     01 18 37.057411 -24 44 21.45047
 2018-Sep-03 09:09     01 18 36.915486 -24 44 20.85621
 2018-Sep-03 09:10     01 18 36.773498 -24 44 20.26169
 2018-Sep-03 09:11     01 18 36.631448 -24 44 19.66691
 2018-Sep-03 09:12     01 18 36.489337 -24 44 19.07189
 2018-Sep-03 09:13     01 18 36.347164 -24 44 18.47660
 2018-Sep-03 09:14     01 18 36.204930 -24 44 17.88106
 2018-Sep-03 09:15     01 18 36.062635 -24 44 17.28526
 2018-Sep-03 09:16     01 18 35.920279 -24 44 16.68919
 2018-Sep-03 09:17     01 18 35.777863 -24 44 16.09287
 2018-Sep-03 09:18     01 18 35.635385 -24 44 15.49628
 2018-Sep-03 09:19     01 18 35.492848 -24 44 14.89943
 2018-Sep-03 09:20     01 18 35.350250 -24 44 14.30231
 2018-Sep-03 09:21     01 18 35.207592 -24 44 13.70493
 2018-Sep-03 09:22     01 18 35.064874 -24 44 13.10727
 2018-Sep-03 09:23     01 18 34.922096 -24 44 12.50935
 2018-Sep-03 09:24     01 18 34.779259 -24 44 11.91115
 2018-Sep-03 09:25     01 18 34.636363 -24 44 11.31268
 2018-Sep-03 09:26     01 18 34.493407 -24 44 10.71394
 2018-Sep-03 09:27     01 18 34.350393 -24 44 10.11492
 2018-Sep-03 09:28     01 18 34.207320 -24 44 09.51563
 2018-Sep-03 09:29     01 18 34.064188 -24 44 08.91605
 2018-Sep-03 09:30     01 18 33.920997 -24 44 08.31620
 2018-Sep-03 09:31     01 18 33.777749 -24 44 07.71607
 2018-Sep-03 09:32     01 18 33.634442 -24 44 07.11565
 2018-Sep-03 09:33     01 18 33.491077 -24 44 06.51496
 2018-Sep-03 09:34     01 18 33.347655 -24 44 05.91397
 2018-Sep-03 09:35     01 18 33.204175 -24 44 05.31270
 2018-Sep-03 09:36     01 18 33.060638 -24 44 04.71115
 2018-Sep-03 09:37     01 18 32.917044 -24 44 04.10930
 2018-Sep-03 09:38     01 18 32.773393 -24 44 03.50717
 2018-Sep-03 09:39     01 18 32.629685 -24 44 02.90475
 2018-Sep-03 09:40     01 18 32.485921 -24 44 02.30203
 2018-Sep-03 09:41     01 18 32.342100 -24 44 01.69902
 2018-Sep-03 09:42     01 18 32.198224 -24 44 01.09571
 2018-Sep-03 09:43     01 18 32.054291 -24 44 00.49211
 2018-Sep-03 09:44     01 18 31.910302 -24 43 59.88822
 2018-Sep-03 09:45     01 18 31.766258 -24 43 59.28402
 2018-Sep-03 09:46     01 18 31.622159 -24 43 58.67952
 2018-Sep-03 09:47     01 18 31.478005 -24 43 58.07473
 2018-Sep-03 09:48     01 18 31.333795 -24 43 57.46963
 2018-Sep-03 09:49     01 18 31.189531 -24 43 56.86422
 2018-Sep-03 09:50     01 18 31.045212 -24 43 56.25852
 2018-Sep-03 09:51  m  01 18 30.900839 -24 43 55.65250
 2018-Sep-03 09:52  m  01 18 30.756412 -24 43 55.04618
 2018-Sep-03 09:53  m  01 18 30.611931 -24 43 54.43956
 2018-Sep-03 09:54  m  01 18 30.467397 -24 43 53.83262
 2018-Sep-03 09:55  m  01 18 30.322808 -24 43 53.22537
 2018-Sep-03 09:56  m  01 18 30.178167 -24 43 52.61781
 2018-Sep-03 09:57  m  01 18 30.033472 -24 43 52.00994
 2018-Sep-03 09:58  m  01 18 29.888725 -24 43 51.40175
 2018-Sep-03 09:59  m  01 18 29.743925 -24 43 50.79325
 2018-Sep-03 10:00  m  01 18 29.599072 -24 43 50.18443
 2018-Sep-03 10:01  m  01 18 29.454168 -24 43 49.57529
 2018-Sep-03 10:02  m  01 18 29.309211 -24 43 48.96584
 2018-Sep-03 10:03  m  01 18 29.164202 -24 43 48.35606
 2018-Sep-03 10:04  m  01 18 29.019142 -24 43 47.74597
 2018-Sep-03 10:05  m  01 18 28.874031 -24 43 47.13555
 2018-Sep-03 10:06  m  01 18 28.728868 -24 43 46.52481
 2018-Sep-03 10:07  m  01 18 28.583655 -24 43 45.91374
 2018-Sep-03 10:08  m  01 18 28.438390 -24 43 45.30235
 2018-Sep-03 10:09  m  01 18 28.293076 -24 43 44.69063
 2018-Sep-03 10:10  m  01 18 28.147711 -24 43 44.07859
 2018-Sep-03 10:11  m  01 18 28.002296 -24 43 43.46621
 2018-Sep-03 10:12  m  01 18 27.856831 -24 43 42.85351
 2018-Sep-03 10:13  m  01 18 27.711317 -24 43 42.24047
 2018-Sep-03 10:14  m  01 18 27.565753 -24 43 41.62711
 2018-Sep-03 10:15  m  01 18 27.420140 -24 43 41.01341
 2018-Sep-03 10:16  m  01 18 27.274479 -24 43 40.39937
 2018-Sep-03 10:17  m  01 18 27.128768 -24 43 39.78500
 2018-Sep-03 10:18  m  01 18 26.983009 -24 43 39.17029
 2018-Sep-03 10:19  m  01 18 26.837202 -24 43 38.55525
 2018-Sep-03 10:20  m  01 18 26.691347 -24 43 37.93987
 2018-Sep-03 10:21  m  01 18 26.545445 -24 43 37.32414
 2018-Sep-03 10:22  m  01 18 26.399494 -24 43 36.70808
 2018-Sep-03 10:23  m  01 18 26.253497 -24 43 36.09168
 2018-Sep-03 10:24  m  01 18 26.107452 -24 43 35.47493
 2018-Sep-03 10:25  m  01 18 25.961361 -24 43 34.85784
 2018-Sep-03 10:26  m  01 18 25.815223 -24 43 34.24040
 2018-Sep-03 10:27  m  01 18 25.669038 -24 43 33.62262
 2018-Sep-03 10:28  m  01 18 25.522808 -24 43 33.00449
 2018-Sep-03 10:29  m  01 18 25.376532 -24 43 32.38602
 2018-Sep-03 10:30  m  01 18 25.230210 -24 43 31.76719
 2018-Sep-03 10:31  m  01 18 25.083842 -24 43 31.14802
 2018-Sep-03 10:32  m  01 18 24.937430 -24 43 30.52849
 2018-Sep-03 10:33  m  01 18 24.790972 -24 43 29.90861
 2018-Sep-03 10:34  m  01 18 24.644470 -24 43 29.28838
 2018-Sep-03 10:35  m  01 18 24.497924 -24 43 28.66780
 2018-Sep-03 10:36  m  01 18 24.351333 -24 43 28.04686
 2018-Sep-03 10:37  m  01 18 24.204699 -24 43 27.42557
 2018-Sep-03 10:38  m  01 18 24.058020 -24 43 26.80392
 2018-Sep-03 10:39  m  01 18 23.911298 -24 43 26.18191
 2018-Sep-03 10:40  m  01 18 23.764534 -24 43 25.55955
 2018-Sep-03 10:41  m  01 18 23.617726 -24 43 24.93682
 2018-Sep-03 10:42  m  01 18 23.470875 -24 43 24.31374
 2018-Sep-03 10:43  m  01 18 23.323982 -24 43 23.69029
 2018-Sep-03 10:44  m  01 18 23.177047 -24 43 23.06649
 2018-Sep-03 10:45  m  01 18 23.030069 -24 43 22.44231
 2018-Sep-03 10:46  m  01 18 22.883050 -24 43 21.81778
 2018-Sep-03 10:47  m  01 18 22.735990 -24 43 21.19288
 2018-Sep-03 10:48  m  01 18 22.588888 -24 43 20.56762
 2018-Sep-03 10:49  m  01 18 22.441746 -24 43 19.94199
 2018-Sep-03 10:50  m  01 18 22.294562 -24 43 19.31599
 2018-Sep-03 10:51  m  01 18 22.147339 -24 43 18.68962
 2018-Sep-03 10:52  m  01 18 22.000075 -24 43 18.06288
 2018-Sep-03 10:53  m  01 18 21.852771 -24 43 17.43578
